NORAD_CAT_ID,OBJECT_NAME,OBJECT_TYPE,EPOCH,MEAN_MOTION,ECCENTRICITY,INCLINATION,RA_OF_ASC_NODE,ARG_OF_PERICENTER,MEAN_ANOMALY,BSTAR,MEAN_MOTION_DOT,MEAN_MOTION_DDOT,TLE_LINE0,TLE_LINE1,TLE_LINE2,SEMIMAJOR_AXIS,PERIOD,APOGEE,PERIGEE,DECAYED
49753.0,STARLINK-3200,PAYLOAD,2022-02-06 22:00:00,15.29393992,0.0001464,53.2176,6.8457,54.3149,47.7503,-0.024531,-0.00658229,0.0,0 STARLINK-3200,1 49753U 21115AF  22037.91667824 -.00658229  00000-0 -24531-1 0  9995,2 49753  53.2176   6.8457 0001464  54.3149  47.7503 15.29393992  3635,6855.76,94.155,478.628,476.621,0.0
49753.0,STARLINK-3200,PAYLOAD,2022-02-07 14:00:01,15.28462136,0.0001445,53.2175,3.7668,61.8909,111.6258,-0.025357,-0.00660887,0.0,0 STARLINK-3200,1 49753U 21115AF  22038.58334491 -.00660887  00000-0 -25357-1 0  9990,2 49753  53.2175   3.7668 0001445  61.8909 111.6258 15.28462136  3645,6858.545999999999,94.212,481.402,479.42,0.0
49753.0,STARLINK-3200,PAYLOAD,2022-02-07 22:00:00,15.27995003,0.0001559,53.2176,2.2282,57.1641,151.238,-0.025646,-0.00659039,0.0,0 STARLINK-3200,1 49753U 21115AF  22038.91667824 -.00659039  00000-0 -25646-1 0  9994,2 49753  53.2176   2.2282 0001559  57.1641 151.2380 15.27995003 11579,6859.944,94.241,482.878,480.739,0.0
49753.0,STARLINK-3200,PAYLOAD,2022-02-08 14:00:01,15.27063382,0.0001361999999999,53.2175,359.1556,68.2492,208.2409,-0.02655,-0.00662773,0.0,0 STARLINK-3200,1 49753U 21115AF  22039.58334491 -.00662773  00000-0 -26550-1 0  9993,2 49753  53.2175 359.1556 0001362  68.2492 208.2409 15.27063382  3645,6862.733,94.299,485.533,483.664,0.0
49753.0,STARLINK-3200,PAYLOAD,2022-02-08 22:00:01,15.2652084,0.0001569,53.2178,357.6152,65.8679,243.937,-0.02281,-0.00566339,0.0,0 STARLINK-3200,1 49753U 21115AF  22039.91668981 -.00566339  00000-0 -22810-1 0  9990,2 49753  53.2178 357.6152 0001569  65.8679 243.9370 15.26520840 11730,6864.359,94.332,487.301,485.147,0.0
49753.0,STARLINK-3200,PAYLOAD,2022-02-09 13:56:46,15.26856384,0.0002845,53.2208,354.5237,42.1254,317.9964,-0.0079975,-0.0020828,0.0,0 STARLINK-3200,1 49753U 21115AF  22040.58109490 -.00208280  00000-0 -79975-2 0  9993,2 49753  53.2208 354.5237 0002845  42.1254 317.9964 15.26856384 10723,6863.354,94.311,487.171,483.266,0.0
49753.0,STARLINK-3200,PAYLOAD,2022-02-09 14:00:01,15.25662526,0.0001289,53.2176,354.5544,59.0037,315.4147,-0.027622,-0.00660914,0.0,0 STARLINK-3200,1 49753U 21115AF  22040.58334491 -.00660914  00000-0 -27622-1 0  9991,2 49753  53.2176 354.5544 0001289  59.0037 315.4147 15.25662526 11836,6866.934,94.385,489.684,487.914,0.0
49753.0,STARLINK-3200,PAYLOAD,2022-02-10 13:32:25,15.25485888,0.0002225,53.2191,350.0117,52.1641,307.9559,-0.0083401,-0.00208356,0.0,0 STARLINK-3200,1 49753U 21115AF  22041.56418635 -.00208356  00000-0 -83401-2 0  9999,2 49753  53.2191 350.0117 0002225  52.1641 307.9559 15.25485888 10876,6867.464,94.396,490.857,487.801,0.0
49753.0,STARLINK-3200,PAYLOAD,2022-02-10 14:00:01,15.24261645,0.0001424,53.2176,349.9629,56.4462,50.9182,-0.028702,-0.00658548,0.0,0 STARLINK-3200,1 49753U 21115AF  22041.58335648 -.00658548  00000-0 -28702-1 0  9997,2 49753  53.2176 349.9629 0001424  56.4462  50.9182 15.24261645 11984,6871.14,94.472,493.984,492.027,0.0
49753.0,STARLINK-3200,PAYLOAD,2022-02-10 19:50:08,15.25107736,0.000126,53.2192,348.8071,88.67,271.4443,-0.0082854,-0.00204731,0.0,0 STARLINK-3200,1 49753U 21115AF  22041.82648727 -.00204731  00000-0 -82854-2 0  9999,2 49753  53.2192 348.8071 0001260  88.6700 271.4443 15.25107736 10914,6868.599,94.42,491.329,489.598,0.0
49753.0,STARLINK-3200,PAYLOAD,2022-02-11 05:16:55,15.24546998,0.0001708,53.2195,347.0025,71.5154,288.603,-0.0087914,-0.00213355,0.0,0 STARLINK-3200,1 49753U 21115AF  22042.22008956 -.00213355  00000-0 -87914-2 0  9992,2 49753  53.2195 347.0025 0001708  71.5154 288.6030 15.24546998 12086,6870.283,94.454,493.321,490.975,0.0
49753.0,STARLINK-3200,PAYLOAD,2022-02-11 13:08:48,15.245312900000002,0.0001422,53.2193,345.4971,22.6139,337.4922,-0.0064163,-0.00156913,0.0,0 STARLINK-3200,1 49753U 21115AF  22042.54778897 -.00156913  00000-0 -64163-2 0  9992,2 49753  53.2193 345.4971 0001422  22.6139 337.4922 15.24531290 12137,6870.33,94.455,493.172,491.218,0.0
49753.0,STARLINK-3200,PAYLOAD,2022-02-11 21:01:48,15.23788131,6.73e-05,53.2187,343.99800000000016,48.6673,311.4384,-0.0084923999999999,-0.00201787,0.0,0 STARLINK-3200,1 49753U 21115AF  22042.87625002 -.00201787  00000-0 -84924-2 0  9994,2 49753  53.2187 343.9980 0000673  48.6673 311.4384 15.23788131 11074,6872.564,94.501,494.891,493.966,0.0
49753.0,STARLINK-3200,PAYLOAD,2022-02-11 22:00:01,15.22394857,0.0001579,53.2177,343.8565,57.63399999999999,165.7242,-0.030284,-0.00657288,0.0,0 STARLINK-3200,1 49753U 21115AF  22042.91668981 -.00657288  00000-0 -30284-1 0  9992,2 49753  53.2177 343.8565 0001579  57.6340 165.7242 15.22394857 12181,6876.755999999999,94.588,499.707,497.535,0.0
49753.0,STARLINK-3200,PAYLOAD,2022-02-12 12:47:36,15.22682974,0.0001956,53.2179,341.0004,59.7898,300.3294,-0.0087712,-0.00201697,0.0,0 STARLINK-3200,1 49753U 21115AF  22043.53306416 -.00201697  00000-0 -87712-2 0  9991,2 49753  53.2179 341.0004 0001956  59.7898 300.3294 15.22682974 11173,6875.889,94.57,499.099,496.409,0.0
49753.0,STARLINK-3200,PAYLOAD,2022-02-12 22:00:00,15.20995898,0.0001444,53.2177,339.2881,59.8646,244.5386,-0.031618,-0.00658332,0.0,0 STARLINK-3200,1 49753U 21115AF  22043.91667824 -.00658332  00000-0 -31618-1 0  9991,2 49753  53.2177 339.2881 0001444  59.8646 244.5386 15.20995898 12348,6880.972,94.675,503.831,501.844,0.0
49753.0,STARLINK-3200,PAYLOAD,2022-02-13 14:00:01,15.20062064,0.0001309,53.2176,336.2477,60.5265,295.1466,-0.032463,-0.00657672,0.0,0 STARLINK-3200,1 49753U 21115AF  22044.58334491 -.00657672  00000-0 -32463-1 0  9991,2 49753  53.2176 336.2477 0001309  60.5265 295.1466 15.20062064  3645,6883.79,94.733,506.556,504.754,0.0
49753.0,STARLINK-3200,PAYLOAD,2022-02-14 06:00:00,15.19127083,0.0001264999999999,53.2175,333.2137,66.6423,338.0571,-0.033177,-0.00661367,0.0,0 STARLINK-3200,1 49753U 21115AF  22045.25001157 -.00661367  00000-0 -33177-1 0  9995,2 49753  53.2175 333.2137 0001265  66.6423 338.0571 15.19127083 12542,6886.614000000001,94.791,509.351,507.608,0.0
49753.0,STARLINK-3200,PAYLOAD,2022-02-14 14:00:01,15.1866165,0.0001389,53.2176,331.6956,54.6058,13.7669,-0.033757,-0.00663739,0.0,0 STARLINK-3200,1 49753U 21115AF  22045.58334491 -.00663739  00000-0 -33757-1 0  9990,2 49753  53.2176 331.6956 0001389  54.6058  13.7669 15.18661650  3640,6888.021,94.82,510.843,508.93,0.0
49753.0,STARLINK-3200,PAYLOAD,2022-02-14 20:00:01,15.18312748,0.0001385999999999,53.2178,330.5591,59.7949,295.9635,-0.034139,-0.00664443,0.0,0 STARLINK-3200,1 49753U 21115AF  22045.83334491 -.00664443  00000-0 -34139-1 0  9996,2 49753  53.2178 330.5591 0001386  59.7949 295.9635 15.18312748  3623,6889.0769999999975,94.842,511.896,509.987,0.0
49753.0,STARLINK-3200,PAYLOAD,2022-02-15 06:00:00,15.1765023,0.0001583,53.2171,328.6617,57.1903,56.8908,-0.028933,-0.00553196,0.0,0 STARLINK-3200,1 49753U 21115AF  22046.25001157 -.00553196  00000-0 -28933-1 0  9990,2 49753  53.2171 328.6617 0001583  57.1903  56.8908 15.17650230 12698,6891.081,94.884,514.0369999999998,511.856,0.0
49753.0,STARLINK-3200,PAYLOAD,2022-02-15 14:00:01,15.17202882,0.0001486,53.2175,327.1471,47.7305,88.3297,-0.030588,-0.00575807,0.0,0 STARLINK-3200,1 49753U 21115AF  22046.58334491 -.00575807  00000-0 -30588-1 0  9998,2 49753  53.2175 327.1471 0001486  47.7305  88.3297 15.17202882 12740,6892.436,94.911,515.325,513.2769999999998,0.0
49753.0,STARLINK-3200,PAYLOAD,2022-02-15 22:00:01,15.16795998,0.0001626,53.2176,325.6421,52.9571,104.5616,-0.03569,-0.00664877,0.0,0 STARLINK-3200,1 49753U 21115AF  22046.91668981 -.00664877  00000-0 -35690-1 0  9994,2 49753  53.2176 325.6421 0001626  52.9571 104.5616 15.16795998  3636,6893.668000000002,94.937,516.654,514.413,0.0
49753.0,STARLINK-3200,PAYLOAD,2022-02-16 06:00:00,15.16326752,0.0001649,53.2174,324.1323,51.2664,127.0585,-0.035875,-0.00659726,0.0,0 STARLINK-3200,1 49753U 21115AF  22047.25001157 -.00659726  00000-0 -35875-1 0  9990,2 49753  53.2174 324.1323 0001649  51.2664 127.0585 15.16326752 12845,6895.090999999999,94.966,518.0930000000002,515.819,0.0
49753.0,STARLINK-3200,PAYLOAD,2022-02-16 14:00:01,15.15861556,0.0001512,53.2174,322.6207,60.6769,137.9572,-0.036496,-0.00662098,0.0,0 STARLINK-3200,1 49753U 21115AF  22047.58334491 -.00662098  00000-0 -36496-1 0  9992,2 49753  53.2174 322.6207 0001512  60.6769 137.9572 15.15861556  3636,6896.501,94.995,519.409,517.323,0.0
49753.0,STARLINK-3200,PAYLOAD,2022-02-16 22:00:00,15.15337028,0.0001476,53.2175,321.1055,72.8514,145.5662,-0.0324519999999999,-0.00578883,0.0,0 STARLINK-3200,1 49753U 21115AF  22047.91667824 -.00578883  00000-0 -32452-1 0  9994,2 49753  53.2175 321.1055 0001476  72.8514 145.5662 15.15337028  3619,6898.093000000003,95.028,520.976,518.939,0.0
49753.0,STARLINK-3200,PAYLOAD,2022-02-17 06:00:00,15.14900205,0.0001629999999999,53.2173,319.5994,53.2448,184.3417,-0.035115,-0.0061596,0.0,0 STARLINK-3200,1 49753U 21115AF  22048.25001157 -.00615960  00000-0 -35115-1 0  9990,2 49753  53.2173 319.5994 0001630  53.2448 184.3417 15.14900205 13006,6899.419,95.056,522.408,520.159,0.0
49753.0,STARLINK-3200,PAYLOAD,2022-02-17 14:00:01,15.14411089,0.0001538,53.2175,318.0911,50.9917,205.2336,-0.033656,-0.00584387,0.0,0 STARLINK-3200,1 49753U 21115AF  22048.58334491 -.00584387  00000-0 -33656-1 0  9992,2 49753  53.2175 318.0911 0001538  50.9917 205.2336 15.14411089  3619,6900.904,95.086,523.83,521.7080000000002,0.0
49753.0,STARLINK-3200,PAYLOAD,2022-02-17 22:00:00,15.13941283,0.0001504,53.2175,316.586,75.5669,198.728,-0.034021,-0.00583008,0.0,0 STARLINK-3200,1 49753U 21115AF  22048.91667824 -.00583008  00000-0 -34021-1 0  9994,2 49753  53.2175 316.5860 0001504  75.5669 198.7280 15.13941283 13107,6902.331999999999,95.116,525.235,523.158,0.0
